STARLINK-32104          
1 59695U 24086P   24327.72056820  .00002028  00000+0  55819-4 0  9995
2 59695  43.0012 214.5123 0001416 280.5521  79.5176 15.40690972 31821
STARLINK-32094          
1 59696U 24086Q   24328.73210842 -.00000665  00000+0 -86693-5 0  9996
2 59696  42.9954 213.6049 0000938 287.7979  72.2775 15.40711803 31929
STARLINK-32099          
1 59697U 24086R   24329.09436331 -.00001280  00000+0 -23381-4 0  9998
2 59697  43.0006 212.0326 0001728 264.1063  95.9597 15.40697551 31974
STARLINK-32096          
1 59698U 24086S   24329.72247040  .00001546  00000+0  44268-4 0  9996
2 59698  43.0001 208.1419 0001870 257.8730 102.1917 15.40702276 32077
STARLINK-32102          
1 59699U 24086T   24329.73591479  .00003617  00000+0  93782-4 0  9992
2 59699  42.9978 208.2479 0002095 251.0924 108.9705 15.40712285 32077
STARLINK-32092          
1 59700U 24086U   24329.06748577 -.00000402  00000+0 -23535-5 0  9995
2 59700  43.0011 211.8224 0001774 250.3827 109.6838 15.40689853 31972
STARLINK-32093          
1 59701U 24086V   24328.94005526 -.00000167  00000+0  32593-5 0  9993
2 59701  43.0014 212.5910 0001640 271.7160  88.3509 15.40697669 31955
STARLINK-32087          
1 59702U 24086W   24328.68970091 -.00000404  00000+0 -24175-5 0  9995
2 59702  42.9998 214.1525 0001242 281.4211  78.6506 15.40697848 31675
STARLINK-32086          
1 59703U 24086X   24329.03624788  .00000409  00000+0  17056-4 0  9997
2 59703  43.0000 212.4609 0001443 265.8622  94.2070 15.40699773 31962
STARLINK-32098          
1 59704U 24086Y   24328.74106934  .00001072  00000+0  32912-4 0  9998
2 59704  42.9999 213.6727 0001403 265.7848  94.2848 15.40712062 31923
STARLINK-11107 [DTC]    
1 59708U 24088A   24329.85521277 -.00003109  00000+0 -20831-4 0  9990
2 59708  53.1571 122.0871 0000496 256.6221 103.4742 15.69696133 32462
STARLINK-11088 [DTC]    
1 59709U 24088B   24329.84550546 -.00031087  00000+0 -25308-3 0  9990
2 59709  53.1554 122.7516 0001022  31.9951 328.1129 15.69673403 32478
STARLINK-11092 [DTC]    
1 59710U 24088C   24329.84059452  .00000360  00000+0  78250-5 0  9996
2 59710  53.1578 122.7174 0000754 218.9446 141.1518 15.69707252 32478
STARLINK-11082 [DTC]    
1 59711U 24088D   24329.77202365  .00001917  00000+0  20681-4 0  9995
2 59711  53.1565 123.0002 0001274  17.6561 342.4501 15.69710259 32467
STARLINK-11108 [DTC]    
1 59712U 24088E   24329.76711857  .00004121  00000+0  38856-4 0  9999
2 59712  53.1558 122.9683 0001252  34.0498 326.0600 15.69713098 32463
STARLINK-11100 [DTC]    
1 59713U 24088F   24329.82589106 -.00002095  00000+0 -12455-4 0  9994
2 59713  53.1573 122.6187 0001216 216.8295 143.2639 15.69682431 32470
STARLINK-11094 [DTC]    
1 59714U 24088G   24329.75729940 -.00004833  00000+0 -35056-4 0  9993
2 59714  53.1580 122.8919 0000803 120.9314 239.1783 15.69710655 32466
STARLINK-11101 [DTC]    
1 59715U 24088H   24329.81117705 -.00002938  00000+0 -19422-4 0  9994
2 59715  53.1573 122.5164 0000845  84.9204 275.1910 15.69689271 32473
STARLINK-11099 [DTC]    
1 59716U 24088J   24329.75240053 -.00000267  00000+0  26492-5 0  9999
2 59716  53.1591 122.8657 0000864  47.3977 312.7113 15.69711404 32461
STARLINK-11084 [DTC]    
1 59717U 24088K   24329.80626935 -.00013490  00000+0 -10690-3 0  9997
2 59717  53.1567 122.4814 0001377  65.6695 294.4467 15.69657354 32478
STARLINK-11103 [DTC]    
1 59718U 24088L   24329.80137600 -.00003912  00000+0 -27478-4 0  9995
2 59718  53.1585 122.4457 0000923  90.7169 269.3955 15.69683388 32472
STARLINK-11096 [DTC]    
1 59719U 24088M   24329.85039950 -.00000672  00000+0 -67346-6 0  9990
2 59719  53.1579 122.7776 0001985 222.7047 137.3817 15.69715154 32472
STARLINK-11095 [DTC]    
1 59720U 24088N   24329.86013199 -.00002884  00000+0 -18990-4 0  9996
2 59720  53.1579 122.1025 0000639 116.1486 243.9597 15.69680864 32482
STARLINK-31834          
1 59721U 24088P   24329.68411927 -.00000456  00000+0 -14109-5 0  9990
2 59721  53.1593 164.3615 0001333  96.5807 263.5349 15.39601681 31885
STARLINK-31843          
1 59722U 24088Q   24327.91282485  .00032502  00000+0  81723-3 0  9999
2 59722  53.1579 172.4988 0003008 303.1420  56.9296 15.39686313 31433
STARLINK-31766          
1 59723U 24088R   24329.88349030  .00000757  00000+0  28895-4 0  9997
2 59723  53.1588 163.4714 0000978  94.5874 265.5242 15.39619967 31731
STARLINK-31836          
1 59724U 24088S   24329.88813017  .00004255  00000+0  11632-3 0  9996
2 59724  53.1592 163.5004 0001257  80.0617 280.0529 15.39612217 31737
STARLINK-31820          
1 59725U 24088T   24329.67945671  .00000796  00000+0  29880-4 0  9997
2 59725  53.1588 164.3285 0001179 117.7132 242.3993 15.39619880 31702
STARLINK-31642          
1 59726U 24088U   24329.86457984  .00000950  00000+0  33726-4 0  9990
2 59726  53.1587 163.3515 0000836 111.7709 248.3385 15.39617879 31730
STARLINK-31827          
1 59727U 24088V   24329.53105992  .00000998  00000+0  34923-4 0  9996
2 59727  53.1580 164.8256 0000937 103.5552 256.5557 15.39617098 31789
STARLINK-31472          
1 59730U 24090A   24327.07319646  .00000888  00000+0  28533-4 0  9991
2 59730  43.0051 342.6243 0002308 263.9133  96.1460 15.40706357 31045
STARLINK-31817          
1 59731U 24090B   24327.08888750 -.00004472  00000+0 -99794-4 0  9992
2 59731  43.0048 342.7466 0002028 264.2017  95.8608 15.40711614 31046
STARLINK-31841          
1 59732U 24090C   24328.36217850  .00096769  00000+0  15036-2 0  9995
2 59732  42.9978 329.8583 0011587 118.3439 241.8592 15.52845695 31304
STARLINK-31833          
1 59733U 24090D   24328.42114873 -.00000110  00000+0  46474-5 0  9993
2 59733  43.0069 334.6795 0002864 273.5240  86.5289 15.40702249 31254
STARLINK-31849          
1 59734U 24090E   24328.46148444  .00000070  00000+0  89368-5 0  9992
2 59734  43.0040 334.9885 0001690 266.5449  93.5214 15.40699563 31267
STARLINK-31661          
1 59735U 24090F   24328.01440230  .00003056  00000+0  80379-4 0  9991
2 59735  43.0012 337.6556 0001352 254.3246 105.7461 15.40707648 31137
STARLINK-31707          
1 59736U 24090G   24327.07543830  .00001271  00000+0  37681-4 0  9992
2 59736  43.0028 342.6397 0001854 257.8809 102.1840 15.40699003 31041
STARLINK-31821          
1 59737U 24090H   24328.36305396 -.00000148  00000+0  37292-5 0  9991
2 59737  43.0041 335.1024 0001374 270.7890  89.2809 15.40697986 31242
STARLINK-31819          
1 59738U 24090J   24328.36753523  .00000438  00000+0  17735-4 0  9991
2 59738  43.0018 335.1343 0001205 252.0049 108.0676 15.40702734 31243
STARLINK-31726          
1 59739U 24090K   24329.29529974  .00001035  00000+0  32054-4 0  9991
2 59739  43.0020 330.0649 0001875 271.4901  88.5740 15.40699475 31381
STARLINK-31759          
1 59740U 24090L   24328.99789389  .00000677  00000+0  23457-4 0  9995
2 59740  43.0010 331.2621 0000817 235.3529 124.7251 15.40703787 31343
STARLINK-31818          
1 59741U 24090M   24328.09477486  .00000181  00000+0  11608-4 0  9994
2 59741  43.0015 336.5258 0001647 264.6753  95.3916 15.40702259 31208
STARLINK-31816          
1 59742U 24090N   24328.45910322 -.00000599  00000+0 -70576-5 0  9991
2 59742  43.0060 334.0759 0002243 268.9859  91.0740 15.40697284 31248
STARLINK-31809          
1 59743U 24090P   24329.04943822 -.00001772  00000+0 -35146-4 0  9996
2 59743  42.9995 331.6565 0003537 290.7701  69.2776 15.40677852 31344
STARLINK-31779          
1 59744U 24090Q   24329.42047597  .00000320  00000+0  14914-4 0  9999
2 59744  43.0015 329.2792 0000698 234.6665 125.4126 15.40699265 31409
STARLINK-31805          
1 59745U 24090R   24328.32510134  .00000881  00000+0  28375-4 0  9998
2 59745  43.0087 335.6790 0003183 278.8437  81.2059 15.40700430 31239
STARLINK-31681          
1 59746U 24090S   24328.07475381  .00000357  00000+0  15808-4 0  9990
2 59746  43.0026 337.2460 0001673 265.2460  94.8205 15.40695771 31192
STARLINK-31636          
1 59747U 24090T   24328.05682182  .00001175  00000+0  35368-4 0  9990
2 59747  42.9995 337.1046 0000722 244.9660 115.1122 15.40708686 31190
STARLINK-31640          
1 59748U 24090U   24329.39584440  .00006259  00000+0  15713-3 0  9996
2 59748  43.0006 329.0878 0000687 219.0410 141.0397 15.40668043 31403
STARLINK-31677          
1 59749U 24090V   24328.02771061  .00010373  00000+0  25504-3 0  9994
2 59749  42.9977 336.8827 0000361  89.6060 270.4838 15.40722707 31180
STARLINK-31783          
1 59750U 24090W   24329.05601109  .00000389  00000+0  16571-4 0  9996
2 59750  43.0014 330.8359 0000191 145.5115 214.5754 15.40699322 31344
STARLINK-31808          
1 59751U 24090X   24329.42941838  .00001616  00000+0  45944-4 0  9994
2 59751  43.0018 329.3451 0002735 240.6277 119.4306 15.40710553 31398
STARLINK-31822          
1 59752U 24090Y   24328.37424851  .00000147  00000+0  10783-4 0  9990
2 59752  43.0045 335.1839 0001986 251.5812 108.4829 15.40703425 31238
STARLINK-11125 [DTC]    
1 59753U 24091A   24329.58103012 -.00001053  00000+0 -38200-5 0  9993
2 59753  53.1590   4.0194 0002036  93.0758 267.0493 15.69712044 31672
STARLINK-11118 [DTC]    
1 59754U 24091B   24328.50355181  .00000968  00000+0  12859-4 0  9994
2 59754  53.1577   9.3751 0001734  61.6824 298.4368 15.69710784 31526
STARLINK-11132 [DTC]    
1 59755U 24091C   24328.43008447 -.00003249  00000+0 -21988-4 0  9997
2 59755  53.1576   9.6270 0001667  72.6458 287.4743 15.69684114 31493
STARLINK-11131 [DTC]    
1 59756U 24091D   24329.50754193 -.00000419  00000+0  14035-5 0  9994
2 59756  53.1584   4.2544 0001107 105.5819 254.5321 15.69711201 31668
STARLINK-11114 [DTC]    
1 59757U 24091E   24329.43896741 -.00002610  00000+0 -16694-4 0  9991
2 59757  53.1580   4.5629 0000650  94.0110 266.0982 15.69714776 31650
STARLINK-11105 [DTC]    
1 59758U 24091F   24329.43406217 -.00000535  00000+0  43802-6 0  9993
2 59758  53.1578   4.5243 0000747  79.7630 280.3472 15.69710713 31654
